[{"OBJECT_NAME":"ONEWEB-0012","OBJECT_ID":"2019-010A","EPOCH":"2025-10-27T04:05:31.417728","MEAN_MOTION":13.16594955,"ECCENTRICITY":0.00014415,"INCLINATION":87.8978,"RA_OF_ASC_NODE":275.2114,"ARG_OF_PERICENTER":86.4837,"MEAN_ANOMALY":273.6459,"EPHEMERIS_TYPE":0,"CLASSIFICATION_TYPE":"U","NORAD_CAT_ID":44057,"ELEMENT_SET_NO":999,"REV_AT_EPOCH":32090,"BSTAR":4.5090733e-5,"MEAN_MOTION_DOT":3.0e-7,"MEAN_MOTION_DDOT":0},{"OBJECT_NAME":"ONEWEB-0010","OBJECT_ID":"2019-010B","EPOCH":"2025-10-27T06:31:26.200128","MEAN_MOTION":13.16595357,"ECCENTRICITY":0.00021905,"INCLINATION":87.8986,"RA_OF_ASC_NODE":275.1766,"ARG_OF_PERICENTER":93.8223,"MEAN_ANOMALY":266.3158,"EPHEMERIS_TYPE":0,"CLASSIFICATION_TYPE":"U","NORAD_CAT_ID":44058,"ELEMENT_SET_NO":999,"REV_AT_EPOCH":32096,"BSTAR":-0.00011816614,"MEAN_MOTION_DOT":-3.2e-7,"MEAN_MOTION_DDOT":0},{"OBJECT_NAME":"ONEWEB-0008","OBJECT_ID":"2019-010C","EPOCH":"2025-10-27T05:18:27.394560","MEAN_MOTION":13.16595287,"ECCENTRICITY":0.0001925,"INCLINATION":87.8986,"RA_OF_ASC_NODE":275.1833,"ARG_OF_PERICENTER":80.1536,"MEAN_ANOMALY":279.9812,"EPHEMERIS_TYPE":0,"CLASSIFICATION_TYPE":"U","NORAD_CAT_ID":44059,"ELEMENT_SET_NO":999,"REV_AT_EPOCH":32107,"BSTAR":0.00018389724,"MEAN_MOTION_DOT":8.3e-7,"MEAN_MOTION_DDOT":0},{"OBJECT_NAME":"ONEWEB-0007","OBJECT_ID":"2019-010D","EPOCH":"2025-10-27T07:11:08.061504","MEAN_MOTION":13.15549101,"ECCENTRICITY":0.00018695,"INCLINATION":87.8961,"RA_OF_ASC_NODE":305.7053,"ARG_OF_PERICENTER":101.1351,"MEAN_ANOMALY":258.999,"EPHEMERIS_TYPE":0,"CLASSIFICATION_TYPE":"U","NORAD_CAT_ID":44060,"ELEMENT_SET_NO":999,"REV_AT_EPOCH":32075,"BSTAR":0.00012092426,"MEAN_MOTION_DOT":5.8e-7,"MEAN_MOTION_DDOT":0},{"OBJECT_NAME":"ONEWEB-0006","OBJECT_ID":"2019-010E","EPOCH":"2025-10-27T07:16:50.088864","MEAN_MOTION":13.15548468,"ECCENTRICITY":0.00019578,"INCLINATION":87.8968,"RA_OF_ASC_NODE":305.6477,"ARG_OF_PERICENTER":98.4888,"MEAN_ANOMALY":261.6464,"EPHEMERIS_TYPE":0,"CLASSIFICATION_TYPE":"U","NORAD_CAT_ID":44061,"ELEMENT_SET_NO":999,"REV_AT_EPOCH":32080,"BSTAR":0.00025279296,"MEAN_MOTION_DOT":1.08e-6,"MEAN_MOTION_DDOT":0},{"OBJECT_NAME":"ONEWEB-0011","OBJECT_ID":"2019-010F","EPOCH":"2025-10-27T01:02:36.921696","MEAN_MOTION":13.15549097,"ECCENTRICITY":0.00020428,"INCLINATION":87.8964,"RA_OF_ASC_NODE":305.7108,"ARG_OF_PERICENTER":88.7926,"MEAN_ANOMALY":271.3438,"EPHEMERIS_TYPE":0,"CLASSIFICATION_TYPE":"U","NORAD_CAT_ID":44062,"ELEMENT_SET_NO":999,"REV_AT_EPOCH":32076,"BSTAR":-0.00031983332,"MEAN_MOTION_DOT":-1.08e-6,"MEAN_MOTION_DDOT":0},{"OBJECT_NAME":"ONEWEB-0013","OBJECT_ID":"2020-008A","EPOCH":"2025-10-26T23:05:47.715648","MEAN_MOTION":13.09440378,"ECCENTRICITY":5.797e-5,"INCLINATION":87.847,"RA_OF_ASC_NODE":99.9248,"ARG_OF_PERICENTER":101.143,"MEAN_ANOMALY":258.9762,"EPHEMERIS_TYPE":0,"CLASSIFICATION_TYPE":"U","NORAD_CAT_ID":45131,"ELEMENT_SET_NO":999,"REV_AT_EPOCH":27554,"BSTAR":0.0011946428,"MEAN_MOTION_DOT":4.24e-6,"MEAN_MOTION_DDOT":0},{"OBJECT_NAME":"ONEWEB-0017","OBJECT_ID":"2020-008B","EPOCH":"2025-10-27T02:37:27.814080","MEAN_MOTION":13.10370488,"ECCENTRICITY":0.00018041,"INCLINATION":87.8767,"RA_OF_ASC_NODE":82.7388,"ARG_OF_PERICENTER":99.0113,"MEAN_ANOMALY":261.1219,"EPHEMERIS_TYPE":0,"CLASSIFICATION_TYPE":"U","NORAD_CAT_ID":45132,"ELEMENT_SET_NO":999,"REV_AT_EPOCH":27742,"BSTAR":-0.00098754209,"MEAN_MOTION_DOT":-3.32e-6,"MEAN_MOTION_DDOT":0},{"OBJECT_NAME":"ONEWEB-0020","OBJECT_ID":"2020-008C","EPOCH":"2025-10-27T03:44:24.787680","MEAN_MOTION":13.10373401,"ECCENTRICITY":0.00016757,"INCLINATION":87.8778,"RA_OF_ASC_NODE":82.7136,"ARG_OF_PERICENTER":88.4138,"MEAN_ANOMALY":271.7181,"EPHEMERIS_TYPE":0,"CLASSIFICATION_TYPE":"U","NORAD_CAT_ID":45133,"ELEMENT_SET_NO":999,"REV_AT_EPOCH":27782,"BSTAR":0.0016659137,"MEAN_MOTION_DOT":5.94e-6,"MEAN_MOTION_DDOT":0},{"OBJECT_NAME":"ONEWEB-0021","OBJECT_ID":"2020-008D","EPOCH":"2025-10-27T02:15:58.453056","MEAN_MOTION":13.10372021,"ECCENTRICITY":0.00015596,"INCLINATION":87.8764,"RA_OF_ASC_NODE":82.7587,"ARG_OF_PERICENTER":99.095,"MEAN_ANOMALY":261.0354,"EPHEMERIS_TYPE":0,"CLASSIFICATION_TYPE":"U","NORAD_CAT_ID":45134,"ELEMENT_SET_NO":999,"REV_AT_EPOCH":27812,"BSTAR":0.0010814475,"MEAN_MOTION_DOT":3.9e-6,"MEAN_MOTION_DDOT":0},{"OBJECT_NAME":"ONEWEB-0023","OBJECT_ID":"2020-008F","EPOCH":"2025-10-27T02:31:28.699392","MEAN_MOTION":13.10369061,"ECCENTRICITY":0.00014367,"INCLINATION":87.8766,"RA_OF_ASC_NODE":82.7388,"ARG_OF_PERICENTER":88.5132,"MEAN_ANOMALY":271.616,"EPHEMERIS_TYPE":0,"CLASSIFICATION_TYPE":"U","NORAD_CAT_ID":45136,"ELEMENT_SET_NO":999,"REV_AT_EPOCH":27755,"BSTAR":-0.00038964576,"MEAN_MOTION_DOT":-1.23e-6,"MEAN_MOTION_DDOT":0},{"OBJECT_NAME":"ONEWEB-0024","OBJECT_ID":"2020-008G","EPOCH":"2025-10-27T03:42:01.301472","MEAN_MOTION":13.10372777,"ECCENTRICITY":0.00016334,"INCLINATION":87.8789,"RA_OF_ASC_NODE":82.689,"ARG_OF_PERICENTER":96.8926,"MEAN_ANOMALY":263.2387,"EPHEMERIS_TYPE":0,"CLASSIFICATION_TYPE":"U","NORAD_CAT_ID":45137,"ELEMENT_SET_NO":999,"REV_AT_EPOCH":27772,"BSTAR":0.0019091852,"MEAN_MOTION_DOT":6.79e-6,"MEAN_MOTION_DDOT":0},{"OBJECT_NAME":"ONEWEB-0025","OBJECT_ID":"2020-008H","EPOCH":"2025-10-27T02:17:09.429792","MEAN_MOTION":13.10370985,"ECCENTRICITY":0.00012481,"INCLINATION":87.8777,"RA_OF_ASC_NODE":82.7089,"ARG_OF_PERICENTER":100.9174,"MEAN_ANOMALY":259.2093,"EPHEMERIS_TYPE":0,"CLASSIFICATION_TYPE":"U","NORAD_CAT_ID":45138,"ELEMENT_SET_NO":999,"REV_AT_EPOCH":27804,"BSTAR":0.0010230386,"MEAN_MOTION_DOT":3.7e-6,"MEAN_MOTION_DDOT":0},{"OBJECT_NAME":"ONEWEB-0026","OBJECT_ID":"2020-008J","EPOCH":"2025-10-27T01:43:34.205088","MEAN_MOTION":13.11416125,"ECCENTRICITY":0.00017969,"INCLINATION":87.8842,"RA_OF_ASC_NODE":67.4866,"ARG_OF_PERICENTER":97.4714,"MEAN_ANOMALY":262.6618,"EPHEMERIS_TYPE":0,"CLASSIFICATION_TYPE":"U","NORAD_CAT_ID":45139,"ELEMENT_SET_NO":999,"REV_AT_EPOCH":28055,"BSTAR":-0.0015419026,"MEAN_MOTION_DOT":-5.34e-6,"MEAN_MOTION_DDOT":0},{"OBJECT_NAME":"ONEWEB-0028","OBJECT_ID":"2020-008K","EPOCH":"2025-10-27T02:31:12.033696","MEAN_MOTION":13.11418285,"ECCENTRICITY":9.904e-5,"INCLINATION":87.8836,"RA_OF_ASC_NODE":67.4978,"ARG_OF_PERICENTER":109.6364,"MEAN_ANOMALY":250.4871,"EPHEMERIS_TYPE":0,"CLASSIFICATION_TYPE":"U","NORAD_CAT_ID":45140,"ELEMENT_SET_NO":999,"REV_AT_EPOCH":27807,"BSTAR":0.00079224533,"MEAN_MOTION_DOT":2.93e-6,"MEAN_MOTION_DDOT":0},{"OBJECT_NAME":"ONEWEB-0032","OBJECT_ID":"2020-008L","EPOCH":"2025-10-26T22:59:56.162688","MEAN_MOTION":13.10371274,"ECCENTRICITY":0.00013817,"INCLINATION":87.8767,"RA_OF_ASC_NODE":82.7688,"ARG_OF_PERICENTER":96.1468,"MEAN_ANOMALY":263.9816,"EPHEMERIS_TYPE":0,"CLASSIFICATION_TYPE":"U","NORAD_CAT_ID":45141,"ELEMENT_SET_NO":999,"REV_AT_EPOCH":27775,"BSTAR":-0.0011832604,"MEAN_MOTION_DOT":-4.0e-6,"MEAN_MOTION_DDOT":0},{"OBJECT_NAME":"ONEWEB-0033","OBJECT_ID":"2020-008M","EPOCH":"2025-10-27T03:53:58.706592","MEAN_MOTION":13.10371958,"ECCENTRICITY":0.00017809,"INCLINATION":87.8769,"RA_OF_ASC_NODE":82.7401,"ARG_OF_PERICENTER":98.0937,"MEAN_ANOMALY":262.0393,"EPHEMERIS_TYPE":0,"CLASSIFICATION_TYPE":"U","NORAD_CAT_ID":45142,"ELEMENT_SET_NO":999,"REV_AT_EPOCH":27769,"BSTAR":0.0017760924,"MEAN_MOTION_DOT":6.33e-6,"MEAN_MOTION_DDOT":0}]
