ONEWEB-0012             
1 44057U 19010A   25300.17050252  .00000030  00000+0  45091-4 0  9998
2 44057  87.8978 275.2114 0001441  86.4837 273.6459 13.16594955320905
ONEWEB-0010             
1 44058U 19010B   25300.27183102 -.00000032  00000+0 -11817-3 0  9993
2 44058  87.8986 275.1766 0002190  93.8223 266.3158 13.16595357320968
ONEWEB-0008             
1 44059U 19010C   25300.22115040  .00000083  00000+0  18390-3 0  9992
2 44059  87.8986 275.1833 0001925  80.1536 279.9812 13.16595287321077
ONEWEB-0007             
1 44060U 19010D   25300.29939886  .00000058  00000+0  12092-3 0  9998
2 44060  87.8961 305.7053 0001869 101.1351 258.9990 13.15549101320753
ONEWEB-0006             
1 44061U 19010E   25300.30335751  .00000108  00000+0  25279-3 0  9999
2 44061  87.8968 305.6477 0001957  98.4888 261.6464 13.15548468320809
ONEWEB-0011             
1 44062U 19010F   25300.04348289 -.00000108  00000+0 -31983-3 0  9992
2 44062  87.8964 305.7108 0002042  88.7926 271.3438 13.15549097320762
ONEWEB-0013             
1 45131U 20008A   25299.96235782  .00000424  00000+0  11946-2 0  9995
2 45131  87.8470  99.9248 0000579 101.1430 258.9762 13.09440378275543
ONEWEB-0017             
1 45132U 20008B   25300.10934970 -.00000332  00000+0 -98754-3 0  9993
2 45132  87.8767  82.7388 0001804  99.0113 261.1219 13.10370488277421
ONEWEB-0020             
1 45133U 20008C   25300.15584245  .00000594  00000+0  16659-2 0  9996
2 45133  87.8778  82.7136 0001675  88.4138 271.7181 13.10373401277827
ONEWEB-0021             
1 45134U 20008D   25300.09442654  .00000390  00000+0  10814-2 0  9998
2 45134  87.8764  82.7587 0001559  99.0950 261.0354 13.10372021278129
ONEWEB-0023             
1 45136U 20008F   25300.10519328 -.00000123  00000+0 -38965-3 0  9999
2 45136  87.8766  82.7388 0001436  88.5132 271.6160 13.10369061277559
ONEWEB-0024             
1 45137U 20008G   25300.15418173  .00000679  00000+0  19092-2 0  9994
2 45137  87.8789  82.6890 0001633  96.8926 263.2387 13.10372777277729
ONEWEB-0025             
1 45138U 20008H   25300.09524803  .00000370  00000+0  10230-2 0  9999
2 45138  87.8777  82.7089 0001248 100.9174 259.2093 13.10370985278046
ONEWEB-0026             
1 45139U 20008J   25300.07192367 -.00000534  00000+0 -15419-2 0  9992
2 45139  87.8842  67.4866 0001796  97.4714 262.6618 13.11416125280559
ONEWEB-0028             
1 45140U 20008K   25300.10500039  .00000293  00000+0  79225-3 0  9993
2 45140  87.8836  67.4978 0000990 109.6364 250.4871 13.11418285278079
ONEWEB-0032             
1 45141U 20008L   25299.95828892 -.00000400  00000+0 -11833-2 0  9996
2 45141  87.8767  82.7688 0001381  96.1468 263.9816 13.10371274277758
ONEWEB-0033             
1 45142U 20008M   25300.16248503  .00000633  00000+0  17761-2 0  9990
2 45142  87.8769  82.7401 0001780  98.0937 262.0393 13.10371958277691
